[
  {
    "COMMENT": "GENERATED VIA SPACETRACK.ORG API",
    "ORIGINATOR": "18 SPCS",
    "NORAD_CAT_ID": "25260",
    "OBJECT_NAME": "SPOT 4",
    "OBJECT_TYPE": "PAYLOAD",
    "CLASSIFICATION_TYPE": "U",
    "INTLDES": "98017A",
    "EPOCH": "2023-08-27 04:44:01",
    "EPOCH_MICROSECONDS": "146336",
    "MEAN_MOTION": "14.54281105",
    "ECCENTRICITY": "0.0013689",
    "INCLINATION": "98.2638",
    "RA_OF_ASC_NODE": "331.2959",
    "ARG_OF_PERICENTER": "145.8244",
    "MEAN_ANOMALY": "214.3837",
    "EPHEMERIS_TYPE": "0",
    "ELEMENT_SET_NO": "999",
    "REV_AT_EPOCH": "33023",
    "BSTAR": "0.00013176",
    "MEAN_MOTION_DOT": "0.00000514",
    "MEAN_MOTION_DDOT": "0",
    "FILE": "3990390",
    "TLE_LINE0": "0 SPOT 4",
    "TLE_LINE1": "1 25260U 98017A   23239.19723549  .00000514  00000-0  13176-3 0  9990",
    "TLE_LINE2": "2 25260  98.2638 331.2959 0013689 145.8244 214.3837 14.54281105330230",
    "OBJECT_ID": "1998-017A",
    "OBJECT_NUMBER": "25260",
    "SEMIMAJOR_AXIS": "7089.837",
    "PERIOD": "99.018",
    "APOGEE": "721.408",
    "PERIGEE": "701.997",
    "DECAYED": "0"
  },
  {
    "COMMENT": "GENERATED VIA SPACETRACK.ORG API",
    "ORIGINATOR": "18 SPCS",
    "NORAD_CAT_ID": "25260",
    "OBJECT_NAME": "SPOT 4",
    "OBJECT_TYPE": "PAYLOAD",
    "CLASSIFICATION_TYPE": "U",
    "INTLDES": "98017A",
    "EPOCH": "2023-08-27 19:35:42",
    "EPOCH_MICROSECONDS": "447264",
    "MEAN_MOTION": "14.54281592",
    "ECCENTRICITY": "0.0013729",
    "INCLINATION": "98.2638",
    "RA_OF_ASC_NODE": "331.9073",
    "ARG_OF_PERICENTER": "144.0121",
    "MEAN_ANOMALY": "216.2002",
    "EPHEMERIS_TYPE": "0",
    "ELEMENT_SET_NO": "999",
    "REV_AT_EPOCH": "33056",
    "BSTAR": "0.00012348",
    "MEAN_MOTION_DOT": "0.00000479",
    "MEAN_MOTION_DDOT": "0",
    "FILE": "3990645",
    "TLE_LINE0": "0 SPOT 4",
    "TLE_LINE1": "1 25260U 98017A   23239.81646351  .00000479  00000-0  12348-3 0  9994",
    "TLE_LINE2": "2 25260  98.2638 331.9073 0013729 144.0121 216.2002 14.54281592330565",
    "OBJECT_ID": "1998-017A",
    "OBJECT_NUMBER": "25260",
    "SEMIMAJOR_AXIS": "7089.836",
    "PERIOD": "99.018",
    "APOGEE": "721.434",
    "PERIGEE": "701.967",
    "DECAYED": "0"
  },
  {
    "COMMENT": "GENERATED VIA SPACETRACK.ORG API",
    "ORIGINATOR": "18 SPCS",
    "NORAD_CAT_ID": "25260",
    "OBJECT_NAME": "SPOT 4",
    "OBJECT_TYPE": "PAYLOAD",
    "CLASSIFICATION_TYPE": "U",
    "INTLDES": "98017A",
    "EPOCH": "2023-08-27 21:14:47",
    "EPOCH_MICROSECONDS": "34240",
    "MEAN_MOTION": "14.54281664",
    "ECCENTRICITY": "0.0013734",
    "INCLINATION": "98.2638",
    "RA_OF_ASC_NODE": "331.9753",
    "ARG_OF_PERICENTER": "143.8133",
    "MEAN_ANOMALY": "216.3996",
    "EPHEMERIS_TYPE": "0",
    "ELEMENT_SET_NO": "999",
    "REV_AT_EPOCH": "33033",
    "BSTAR": "0.00012376",
    "MEAN_MOTION_DOT": "0.0000048",
    "MEAN_MOTION_DDOT": "0",
    "FILE": "3990698",
    "TLE_LINE0": "0 SPOT 4",
    "TLE_LINE1": "1 25260U 98017A   23239.88526660  .00000480  00000-0  12376-3 0  9994",
    "TLE_LINE2": "2 25260  98.2638 331.9753 0013734 143.8133 216.3996 14.54281664330334",
    "OBJECT_ID": "1998-017A",
    "OBJECT_NUMBER": "25260",
    "SEMIMAJOR_AXIS": "7089.835",
    "PERIOD": "99.018",
    "APOGEE": "721.438",
    "PERIGEE": "701.963",
    "DECAYED": "0"
  },
  {
    "COMMENT": "GENERATED VIA SPACETRACK.ORG API",
    "ORIGINATOR": "18 SPCS",
    "NORAD_CAT_ID": "25260",
    "OBJECT_NAME": "SPOT 4",
    "OBJECT_TYPE": "PAYLOAD",
    "CLASSIFICATION_TYPE": "U",
    "INTLDES": "98017A",
    "EPOCH": "2023-08-27 21:14:47",
    "EPOCH_MICROSECONDS": "34240",
    "MEAN_MOTION": "14.54281664",
    "ECCENTRICITY": "0.0013734",
    "INCLINATION": "98.2638",
    "RA_OF_ASC_NODE": "331.9753",
    "ARG_OF_PERICENTER": "143.8133",
    "MEAN_ANOMALY": "216.3996",
    "EPHEMERIS_TYPE": "0",
    "ELEMENT_SET_NO": "999",
    "REV_AT_EPOCH": "33057",
    "BSTAR": "0.00012376",
    "MEAN_MOTION_DOT": "0.0000048",
    "MEAN_MOTION_DDOT": "0",
    "FILE": "3990989",
    "TLE_LINE0": "0 SPOT 4",
    "TLE_LINE1": "1 25260U 98017A   23239.88526660  .00000480  00000-0  12376-3 0  9994",
    "TLE_LINE2": "2 25260  98.2638 331.9753 0013734 143.8133 216.3996 14.54281664330570",
    "OBJECT_ID": "1998-017A",
    "OBJECT_NUMBER": "25260",
    "SEMIMAJOR_AXIS": "7089.835",
    "PERIOD": "99.018",
    "APOGEE": "721.438",
    "PERIGEE": "701.963",
    "DECAYED": "0"
  },
  {
    "COMMENT": "GENERATED VIA SPACETRACK.ORG API",
    "ORIGINATOR": "18 SPCS",
    "NORAD_CAT_ID": "25260",
    "OBJECT_NAME": "SPOT 4",
    "OBJECT_TYPE": "PAYLOAD",
    "CLASSIFICATION_TYPE": "U",
    "INTLDES": "98017A",
    "EPOCH": "2023-08-28 07:09:14",
    "EPOCH_MICROSECONDS": "550048",
    "MEAN_MOTION": "14.54282096",
    "ECCENTRICITY": "0.0013746",
    "INCLINATION": "98.2638",
    "RA_OF_ASC_NODE": "332.3829",
    "ARG_OF_PERICENTER": "142.6117",
    "MEAN_ANOMALY": "217.6039",
    "EPHEMERIS_TYPE": "0",
    "ELEMENT_SET_NO": "999",
    "REV_AT_EPOCH": "33063",
    "BSTAR": "0.00012288",
    "MEAN_MOTION_DOT": "0.00000476",
    "MEAN_MOTION_DDOT": "0",
    "FILE": "3991279",
    "TLE_LINE0": "0 SPOT 4",
    "TLE_LINE1": "1 25260U 98017A   23240.29808507  .00000476  00000-0  12288-3 0  9991",
    "TLE_LINE2": "2 25260  98.2638 332.3829 0013746 142.6117 217.6039 14.54282096330630",
    "OBJECT_ID": "1998-017A",
    "OBJECT_NUMBER": "25260",
    "SEMIMAJOR_AXIS": "7089.834",
    "PERIOD": "99.018",
    "APOGEE": "721.445",
    "PERIGEE": "701.953",
    "DECAYED": "0"
  },
  {
    "COMMENT": "GENERATED VIA SPACETRACK.ORG API",
    "ORIGINATOR": "18 SPCS",
    "NORAD_CAT_ID": "25260",
    "OBJECT_NAME": "SPOT 4",
    "OBJECT_TYPE": "PAYLOAD",
    "CLASSIFICATION_TYPE": "U",
    "INTLDES": "98017A",
    "EPOCH": "2023-08-28 12:06:28",
    "EPOCH_MICROSECONDS": "302336",
    "MEAN_MOTION": "14.54282261",
    "ECCENTRICITY": "0.0013767",
    "INCLINATION": "98.2639",
    "RA_OF_ASC_NODE": "332.5868",
    "ARG_OF_PERICENTER": "142.0185",
    "MEAN_ANOMALY": "218.1986",
    "EPHEMERIS_TYPE": "0",
    "ELEMENT_SET_NO": "999",
    "REV_AT_EPOCH": "33066",
    "BSTAR": "0.00012063",
    "MEAN_MOTION_DOT": "0.00000467",
    "MEAN_MOTION_DDOT": "0",
    "FILE": "3991597",
    "TLE_LINE0": "0 SPOT 4",
    "TLE_LINE1": "1 25260U 98017A   23240.50449424  .00000467  00000-0  12063-3 0  9995",
    "TLE_LINE2": "2 25260  98.2639 332.5868 0013767 142.0185 218.1986 14.54282261330662",
    "OBJECT_ID": "1998-017A",
    "OBJECT_NUMBER": "25260",
    "SEMIMAJOR_AXIS": "7089.834",
    "PERIOD": "99.018",
    "APOGEE": "721.459",
    "PERIGEE": "701.938",
    "DECAYED": "0"
  },
  {
    "COMMENT": "GENERATED VIA SPACETRACK.ORG API",
    "ORIGINATOR": "18 SPCS",
    "NORAD_CAT_ID": "25260",
    "OBJECT_NAME": "SPOT 4",
    "OBJECT_TYPE": "PAYLOAD",
    "CLASSIFICATION_TYPE": "U",
    "INTLDES": "98017A",
    "EPOCH": "2023-08-28 20:21:51",
    "EPOCH_MICROSECONDS": "218208",
    "MEAN_MOTION": "14.54282611",
    "ECCENTRICITY": "0.0013786",
    "INCLINATION": "98.2639",
    "RA_OF_ASC_NODE": "332.9265",
    "ARG_OF_PERICENTER": "141.0072",
    "MEAN_ANOMALY": "219.2122",
    "EPHEMERIS_TYPE": "0",
    "ELEMENT_SET_NO": "999",
    "REV_AT_EPOCH": "33047",
    "BSTAR": "0.00011911",
    "MEAN_MOTION_DOT": "0.0000046",
    "MEAN_MOTION_DDOT": "0",
    "FILE": "3991628",
    "TLE_LINE0": "0 SPOT 4",
    "TLE_LINE1": "1 25260U 98017A   23240.84850947  .00000460  00000-0  11911-3 0  9992",
    "TLE_LINE2": "2 25260  98.2639 332.9265 0013786 141.0072 219.2122 14.54282611330474",
    "OBJECT_ID": "1998-017A",
    "OBJECT_NUMBER": "25260",
    "SEMIMAJOR_AXIS": "7089.832",
    "PERIOD": "99.018",
    "APOGEE": "721.471",
    "PERIGEE": "701.923",
    "DECAYED": "0"
  },
  {
    "COMMENT": "GENERATED VIA SPACETRACK.ORG API",
    "ORIGINATOR": "18 SPCS",
    "NORAD_CAT_ID": "25260",
    "OBJECT_NAME": "SPOT 4",
    "OBJECT_TYPE": "PAYLOAD",
    "CLASSIFICATION_TYPE": "U",
    "INTLDES": "98017A",
    "EPOCH": "2023-08-29 04:37:14",
    "EPOCH_MICROSECONDS": "134944",
    "MEAN_MOTION": "14.54282945",
    "ECCENTRICITY": "0.0013798",
    "INCLINATION": "98.2639",
    "RA_OF_ASC_NODE": "333.2663",
    "ARG_OF_PERICENTER": "139.9884",
    "MEAN_ANOMALY": "220.2332",
    "EPHEMERIS_TYPE": "0",
    "ELEMENT_SET_NO": "999",
    "REV_AT_EPOCH": "33076",
    "BSTAR": "0.00011865",
    "MEAN_MOTION_DOT": "0.00000458",
    "MEAN_MOTION_DDOT": "0",
    "FILE": "3991898",
    "TLE_LINE0": "0 SPOT 4",
    "TLE_LINE1": "1 25260U 98017A   23241.19252471  .00000458  00000-0  11865-3 0  9994",
    "TLE_LINE2": "2 25260  98.2639 333.2663 0013798 139.9884 220.2332 14.54282945330767",
    "OBJECT_ID": "1998-017A",
    "OBJECT_NUMBER": "25260",
    "SEMIMAJOR_AXIS": "7089.831",
    "PERIOD": "99.018",
    "APOGEE": "721.479",
    "PERIGEE": "701.914",
    "DECAYED": "0"
  },
  {
    "COMMENT": "GENERATED VIA SPACETRACK.ORG API",
    "ORIGINATOR": "18 SPCS",
    "NORAD_CAT_ID": "25260",
    "OBJECT_NAME": "SPOT 4",
    "OBJECT_TYPE": "PAYLOAD",
    "CLASSIFICATION_TYPE": "U",
    "INTLDES": "98017A",
    "EPOCH": "2023-08-29 06:16:18",
    "EPOCH_MICROSECONDS": "717600",
    "MEAN_MOTION": "14.5428301",
    "ECCENTRICITY": "0.0013803",
    "INCLINATION": "98.2638",
    "RA_OF_ASC_NODE": "333.3342",
    "ARG_OF_PERICENTER": "139.7784",
    "MEAN_ANOMALY": "220.4437",
    "EPHEMERIS_TYPE": "0",
    "ELEMENT_SET_NO": "999",
    "REV_AT_EPOCH": "33077",
    "BSTAR": "0.00011833",
    "MEAN_MOTION_DOT": "0.00000457",
    "MEAN_MOTION_DDOT": "0",
    "FILE": "3992062",
    "TLE_LINE0": "0 SPOT 4",
    "TLE_LINE1": "1 25260U 98017A   23241.26132775  .00000457  00000-0  11833-3 0  9990",
    "TLE_LINE2": "2 25260  98.2638 333.3342 0013803 139.7784 220.4437 14.54283010330778",
    "OBJECT_ID": "1998-017A",
    "OBJECT_NUMBER": "25260",
    "SEMIMAJOR_AXIS": "7089.831",
    "PERIOD": "99.018",
    "APOGEE": "721.482",
    "PERIGEE": "701.910",
    "DECAYED": "0"
  }
]